OBJECT_NAME,OBJECT_ID,EPOCH,MEAN_MOTION,ECCENTRICITY,INCLINATION,RA_OF_ASC_NODE,ARG_OF_PERICENTER,MEAN_ANOMALY,EPHEMERIS_TYPE,CLASSIFICATION_TYPE,NORAD_CAT_ID,ELEMENT_SET_NO,REV_AT_EPOCH,BSTAR,MEAN_MOTION_DOT,MEAN_MOTION_DDOT
SWARM A,2013-067B,2026-07-06T06:02:11.717664,15.51335645,.00032363,87.3306,49.1544,96.4835,263.6795,0,U,39452,999,70920,.17436318E-3,.10281E-3,0
SWARM C,2013-067C,2026-07-06T06:02:03.272064,15.51334793,.00032366,87.3306,47.7354,96.4399,263.7231,0,U,39453,999,70916,.17251676E-3,.10172E-3,0
BRITE-CA1 (TORONTO),2014-033L,2026-07-06T06:23:00.902688,14.72710728,.00778074,97.9762,315.8448,215.0117,144.5962,0,U,40020,999,64502,.17255193E-3,.11E-4,0
OCO 2,2014-035A,2026-07-06T05:53:33.265824,14.57127493,.00014859,98.2019,128.2487,82.4461,277.6907,0,U,40059,999,63882,.10651678E-3,.435E-5,0
BRITE-PL2 (HEWELIUSZ),2014-049B,2026-07-06T06:03:28.605024,14.94665181,.00148963,97.9109,299.4014,50.9040,309.3502,0,U,40119,999,64429,.22612444E-3,.2397E-4,0
MMS 1,2015-011A,2026-07-06T08:00:04.000032,0.28352645,.8319961,72.5690,348.5370,167.8855,91.7829,0,U,40482,999,139,0,-.686E-5,0
MMS 2,2015-011B,2026-07-06T08:00:04.000032,0.28352586,.83227698,72.5731,348.5359,167.8886,91.7718,0,U,40483,999,139,0,-.686E-5,0
MMS 3,2015-011C,2026-07-06T08:00:04.000032,0.28352587,.83211461,72.5728,348.5478,167.8961,91.7462,0,U,40484,999,139,0,-.685E-5,0
MMS 4,2015-011D,2026-07-06T08:00:04.000032,0.28351888,.83206241,72.5659,348.5325,167.9067,91.7442,0,U,40485,999,139,0,-.685E-5,0
ASTROSAT,2015-052A,2026-07-06T01:29:49.803936,14.82542388,.00085061,5.9982,19.4758,302.4435,57.4871,0,U,40930,999,58263,.1387725E-3,.1814E-4,0
DAMPE,2015-078A,2026-07-06T06:08:00.029760,15.30839986,.00125738,97.4560,192.8169,16.8147,343.3508,0,U,41173,999,58746,.79044845E-4,.2282E-4,0
PISAT,2016-059B,2026-07-05T22:38:59.011584,14.69018491,.00298996,97.8184,186.5909,143.1844,217.1423,0,U,41784,999,52249,.19527222E-3,.1106E-4,0
HXMT (HUIYAN),2017-034A,2026-07-06T03:26:41.054208,15.18630917,.00327843,43.0140,77.4762,265.6532,94.0570,0,U,42758,999,50054,.20991598E-3,.4243E-4,0
FLYING LAPTOP,2017-042G,2026-07-06T07:34:18.977088,15.01272389,.00199765,97.4782,342.1225,60.6692,299.6525,0,U,42831,999,48932,.21638834E-3,.2735E-4,0
ZHANGHENG 1-01 (CSES-1),2018-015C,2026-07-06T06:49:13.305792,15.21077870,.00180235,97.6891,353.3255,196.5471,163.5178,0,U,43194,999,46754,.30852707E-3,.6813E-4,0
SALSAT,2020-068K,2026-07-05T23:33:58.355424,15.30081867,.00083275,97.8857,191.1942,228.1198,131.9331,0,U,46495,999,31823,.29469816E-3,.8505E-4,0
IXPE,2021-121A,2026-07-06T06:00:04.000320,15.10449747,.00068596,0.2282,173.0801,10.3352,201.1885,0,U,49954,999,588,.95393764E-3,.17137E-3,0
SMILE,2026-109A,2026-06-07T09:11:54.544416,7.54049028,.3310191,69.9787,209.3069,288.5544,45.7342,0,U,69123,999,248,-.36778157E-3,-.41E-6,0
