SWARM A                 
1 39452U 13067B   26187.25152451  .00010281  00000+0  17436-3 0  9994
2 39452  87.3306  49.1544 0003236  96.4835 263.6795 15.51335645709202
SWARM C                 
1 39453U 13067C   26187.25142676  .00010172  00000+0  17252-3 0  9998
2 39453  87.3306  47.7354 0003236  96.4399 263.7231 15.51334793709165
BRITE-CA1 (TORONTO)     
1 40020U 14033L   26187.26598267  .00001100  00000+0  17255-3 0  9990
2 40020  97.9762 315.8448 0077807 215.0117 144.5962 14.72710728645024
OCO 2                   
1 40059U 14035A   26187.24552391  .00000435  00000+0  10652-3 0  9994
2 40059  98.2019 128.2487 0001485  82.4461 277.6907 14.57127493638822
BRITE-PL2 (HEWELIUSZ)   
1 40119U 14049B   26187.25241441  .00002397  00000+0  22612-3 0  9996
2 40119  97.9109 299.4014 0014896  50.9040 309.3502 14.94665181644299
MMS 1                   
1 40482U 15011A   26187.33337963 -.00000686  00000+0  00000+0 0  9996
2 40482  72.5690 348.5370 8319961 167.8855  91.7829  0.28352645  1390
MMS 2                   
1 40483U 15011B   26187.33337963 -.00000686  00000+0  00000+0 0  9997
2 40483  72.5731 348.5359 8322769 167.8886  91.7718  0.28352586  1399
MMS 3                   
1 40484U 15011C   26187.33337963 -.00000685  00000+0  00000+0 0  9997
2 40484  72.5728 348.5478 8321146 167.8961  91.7462  0.28352587  1397
MMS 4                   
1 40485U 15011D   26187.33337963 -.00000685  00000+0  00000+0 0  9998
2 40485  72.5659 348.5325 8320624 167.9067  91.7442  0.28351888  1391
ASTROSAT                
1 40930U 15052A   26187.06238199  .00001814  00000+0  13877-3 0  9993
2 40930   5.9982  19.4758 0008506 302.4435  57.4871 14.82542388582636
DAMPE                   
1 41173U 15078A   26187.25555590  .00002282  00000+0  79045-4 0  9999
2 41173  97.4560 192.8169 0012573  16.8147 343.3508 15.30839986587468
PISAT                   
1 41784U 16059B   26186.94373856  .00001106  00000+0  19527-3 0  9997
2 41784  97.8184 186.5909 0029899 143.1844 217.1423 14.69018491522498
HXMT (HUIYAN)           
1 42758U 17034A   26187.14353072  .00004243  00000+0  20992-3 0  9997
2 42758  43.0140  77.4762 0032784 265.6532  94.0570 15.18630917500546
FLYING LAPTOP           
1 42831U 17042G   26187.31549742  .00002735  00000+0  21639-3 0  9991
2 42831  97.4782 342.1225 0019976  60.6692 299.6525 15.01272389489329
ZHANGHENG 1-01 (CSES-1) 
1 43194U 18015C   26187.28418178  .00006813  00000+0  30853-3 0  9998
2 43194  97.6891 353.3255 0018023 196.5471 163.5178 15.21077870467541
SALSAT                  
1 46495U 20068K   26186.98192541  .00008505  00000+0  29470-3 0  9998
2 46495  97.8857 191.1942 0008327 228.1198 131.9331 15.30081867318239
IXPE                    
1 49954U 21121A   26187.25004630  .00017137  00000+0  95394-3 0  9993
2 49954   0.2282 173.0801 0006859  10.3352 201.1885 15.10449747  5887
SMILE                   
1 69123U 26109A   26158.38327019 -.00000041  00000+0 -36778-3 0  9994
2 69123  69.9787 209.3069 3310191 288.5544  45.7342  7.54049028  2480
